[{"OBJECT_NAME":"STARLINK-3673","OBJECT_ID":"2022-029F","EPOCH":"2026-03-09T08:13:59.283264","MEAN_MOTION":15.08837259,"ECCENTRICITY":0.00014336,"INCLINATION":53.2164,"RA_OF_ASC_NODE":90.6888,"ARG_OF_PERICENTER":83.0502,"MEAN_ANOMALY":277.0653,"EPHEMERIS_TYPE":0,"CLASSIFICATION_TYPE":"U","NORAD_CAT_ID":52093,"ELEMENT_SET_NO":999,"REV_AT_EPOCH":22060,"BSTAR":9.995306e-6,"MEAN_MOTION_DOT":-1.29e-6,"MEAN_MOTION_DDOT":0},{"OBJECT_NAME":"CZ-6A DEB","OBJECT_ID":"2024-140YJ","EPOCH":"2026-03-09T12:57:52.080768","MEAN_MOTION":14.93904112,"ECCENTRICITY":0.01017322,"INCLINATION":88.9655,"RA_OF_ASC_NODE":277.0683,"ARG_OF_PERICENTER":120.9079,"MEAN_ANOMALY":240.2204,"EPHEMERIS_TYPE":0,"CLASSIFICATION_TYPE":"U","NORAD_CAT_ID":61417,"ELEMENT_SET_NO":999,"REV_AT_EPOCH":8080,"BSTAR":0.0018816098,"MEAN_MOTION_DOT":0.00022222,"MEAN_MOTION_DDOT":0}]
